CCSDS_OEM_VERS = 2.0
CREATION_DATE = 2024-10-05T11:01:37.360000000
ORIGINATOR = NONE

META_START
OBJECT_NAME = _SCPACE_OEM
OBJECT_ID = 1
CENTER_NAME = EARTH
REF_FRAME = EME2000
TIME_SYSTEM = UTC
START_TIME = 2024-10-04T00:00:00.000000000
STOP_TIME = 2024-10-05T08:00:00.000000000
INTERPOLATION = LAGRANGE
INTERPOLATION_DEGREE = 8
META_STOP

2024-10-04T02:51:00.000000000  6.188068281065269e+03  3.017543395492731e+03 -1.551829287756361e+03 -9.919924157483093e-01 -1.681428468498575e+00 -7.257445246260041e+00
2024-10-04T02:52:00.000000000  6.115951337712471e+03  2.910563789551869e+03 -1.983800818278799e+03 -1.411064502671478e+00 -1.883336564263431e+00 -7.136705990121727e+00
2024-10-04T02:53:00.000000000  6.018859504472109e+03  2.791698797375981e+03 -2.407649858075612e+03 -1.824211024583483e+00 -2.077476564584735e+00 -6.986799626354275e+00
2024-10-04T02:54:00.000000000  5.897199113645296e+03  2.661438360479288e+03 -2.821645215361298e+03 -2.229739207969400e+00 -2.263056838303788e+00 -6.808367409115072e+00
2024-10-04T02:55:00.000000000  5.751476704664259e+03  2.520318536848999e+03 -3.224098123680002e+03 -2.625992393346564e+00 -2.439323315518625e+00 -6.602167848188290e+00
2024-10-04T02:56:00.000000000  5.582297824962337e+03  2.368920070125476e+03 -3.613367600699749e+03 -3.011354975113228e+00 -2.605561806661334e+00 -6.369072960531961e+00
2024-10-04T02:57:00.000000000  5.390363130644704e+03  2.207864952545790e+03 -3.987868869913304e+03 -3.384260771970445e+00 -2.761101792491893e+00 -6.110063611246218e+00
2024-10-04T02:58:00.000000000  5.176465689769397e+03  2.037814123752381e+03 -4.346078991506077e+03 -3.743198834416700e+00 -2.905318622978624e+00 -5.826225301921069e+00
2024-10-04T02:59:00.000000000  4.941487285296967e+03  1.859464448974994e+03 -4.686543386536789e+03 -4.086720418938763e+00 -3.037636040070234e+00 -5.518742331751461e+00
2024-10-04T03:00:00.000000000  4.686394821255316e+03  1.673546021219910e+03 -5.007881106217515e+03 -4.413444135740139e+00 -3.157527913773888e+00 -5.188891755424647e+00
2024-10-04T03:01:00.000000000  4.412235717696315e+03  1.480818793388921e+03 -5.308790669647270e+03 -4.722060989975433e+00 -3.264519985010028e+00 -4.838036795308217e+00
2024-10-04T03:02:00.000000000  4.120133809806101e+03  1.282069695571037e+03 -5.588054689222106e+03 -5.011338180557967e+00 -3.358191051814736e+00 -4.467621189966786e+00
2024-10-04T03:03:00.000000000  3.811284520673591e+03  1.078109309021483e+03 -5.844544678121508e+03 -5.280123133386431e+00 -3.438174112037236e+00 -4.079163057079249e+00
2024-10-04T03:04:00.000000000  3.486950014788452e+03  8.697686256857136e+02 -6.077225340562347e+03 -5.527347112250500e+00 -3.504157391907321e+00 -3.674249315465451e+00
2024-10-04T03:05:00.000000000  3.148453448121372e+03  6.578953585037515e+02 -6.285158653208037e+03 -5.752029951736400e+00 -3.555885750395379e+00 -3.254529359565217e+00
2024-10-04T03:06:00.000000000  2.797174513846188e+03  4.433511013764414e+02 -6.467507071297279e+03 -5.953283657463767e+00 -3.593161316470774e+00 -2.821708618046496e+00
2024-10-04T03:07:00.000000000  2.434543191373489e+03  2.270074985469096e+02 -6.623536948527259e+03 -6.130315592424388e+00 -3.615843763503256e+00 -2.377540014772244e+00
2024-10-04T03:08:00.000000000  2.062034233310387e+03  9.742956854290398e+00 -6.752621011925432e+03 -6.282429803012873e+00 -3.623850270608769e+00 -1.923817330079877e+00
2024-10-04T03:09:00.000000000  1.681161202766513e+03 -2.075608864251280e+02 -6.854240695309562e+03 -6.409028942024841e+00 -3.617155797732948e+00 -1.462368805077812e+00
2024-10-04T03:10:00.000000000  1.293470345984311e+03 -4.240227013737249e+02 -6.927987987557963e+03 -6.509616348330967e+00 -3.595792967584839e+00 -9.950499758968288e-01
2024-10-04T03:11:00.000000000  9.005347794829083e+02 -6.387647651561779e+02 -6.973566877917637e+03 -6.583796943963393e+00 -3.559851348187137e+00 -5.237370132673436e-01
2024-10-04T03:12:00.000000000  5.039482031116801e+02 -8.509164548737444e+02 -6.990794390828503e+03 -6.631278216630561e+00 -3.509477015730248e+00 -5.032051235120971e-02
2024-10-04T03:13:00.000000000  1.053185797930823e+02 -1.059617678851173e+03 -6.979601217381949e+03 -6.651871776263968e+00 -3.444872352046995e+00  4.233011706546390e-01
2024-10-04T03:14:00.000000000 -2.937375065568372e+02 -1.264021945968587e+03 -6.940032110050804e+03 -6.645494177747769e+00 -3.366295378596222e+00  8.952287317284915e-01
2024-10-04T03:15:00.000000000 -6.916020885743191e+02 -1.463300101529656e+03 -6.872245483988914e+03 -6.612166872135302e+00 -3.274058512433052e+00  1.363569996563349e+00
2024-10-04T03:16:00.000000000 -1.086661412661381e+03 -1.656643243670079e+03 -6.776513006470346e+03 -6.552015838999201e+00 -3.168527444575308e+00  1.826445556640466e+00
2024-10-04T03:17:00.000000000 -1.477312340440086e+03 -1.843265951273574e+03 -6.653218565926008e+03 -6.465271490209063e+00 -3.050119723221868e+00  2.281995597105646e+00
2024-10-04T03:18:00.000000000 -1.861968889201127e+03 -2.022409457562940e+03 -6.502856822678348e+03 -6.352267998684351e+00 -2.919303108601626e+00  2.728386601912996e+00
2024-10-04T03:19:00.000000000 -2.239068126675455e+03 -2.193344500471154e+03 -6.326031541819098e+03 -6.213442707965705e+00 -2.776594531772893e+00  3.163817300499470e+00
2024-10-04T03:20:00.000000000 -2.607076718694971e+03 -2.355374389893615e+03 -6.123453073243675e+03 -6.049335217870819e+00 -2.622558918283778e+00  3.586526034385252e+00
2024-10-04T03:21:00.000000000 -2.964496467675274e+03 -2.507837612210128e+03 -5.895936424447138e+03 -5.860585978090944e+00 -2.457807595582151e+00  3.994796751260853e+00
2024-10-04T03:22:00.000000000 -3.309869708298697e+03 -2.650110354560097e+03 -5.644399035593953e+03 -5.647935343358204e+00 -2.282996480064168e+00  4.386964945507976e+00
2024-10-04T03:23:00.000000000 -3.641787362418272e+03 -2.781609879831171e+03 -5.369855195889557e+03 -5.412221069115776e+00 -2.098822864799496e+00  4.761427683697783e+00
2024-10-04T03:24:00.000000000 -3.958893410000308e+03 -2.901796469557346e+03 -5.073413145820504e+03 -5.154375845931507e+00 -1.906023316935388e+00  5.116649353428987e+00
2024-10-04T03:25:00.000000000 -4.259890527643892e+03 -3.010175643225365e+03 -4.756271256146299e+03 -4.875423732922341e+00 -1.705371014174132e+00  5.451167810018485e+00
2024-10-04T03:26:00.000000000 -4.543544583890037e+03 -3.106300117461639e+03 -4.419714779260262e+03 -4.576477395012622e+00 -1.497673493927719e+00  5.763599334936935e+00
2024-10-04T03:27:00.000000000 -4.808691667804296e+03 -3.189772246589339e+03 -4.065107808492156e+03 -4.258732631905971e+00 -1.283768427674965e+00  6.052647029579224e+00
2024-10-04T03:28:00.000000000 -5.054241623985486e+03 -3.260245414833161e+03 -3.693890282270660e+03 -3.923466097066485e+00 -1.064521907649090e+00  6.317104265345658e+00
2024-10-04T03:29:00.000000000 -5.279183825882447e+03 -3.317425788650229e+03 -3.307570332513249e+03 -3.572029907207262e+00 -8.408242024210407e-01  6.555862743577277e+00
2024-10-04T03:30:00.000000000 -5.482590251534672e+03 -3.361073512964967e+03 -2.907721063864832e+03 -3.205847620437825e+00 -6.135868218534285e-01  6.767916635746611e+00
2024-10-04T03:31:00.000000000 -5.663620395703225e+03 -3.391003977302289e+03 -2.495972529235978e+03 -2.826407135722579e+00 -3.837379831738005e-01  6.952367916401020e+00
2024-10-04T03:32:00.000000000 -5.821524902643197e+03 -3.407088678898029e+03 -2.074004864306347e+03 -2.435255448839478e+00 -1.522193771177993e-01  7.108430836582652e+00
2024-10-04T03:33:00.000000000 -5.955648875189497e+03 -3.409255922920631e+03 -1.643541889819721e+03 -2.033992563221817e+00  8.001763158268044e-02  7.235436892576130e+00
2024-10-04T03:34:00.000000000 -6.065434742254034e+03 -3.397491310508546e+03 -1.206344357036517e+03 -1.624264040259984e+00  3.120164796059615e-01  7.332838168520316e+00
2024-10-04T03:35:00.000000000 -6.150424927993922e+03 -3.371837869548169e+03 -7.642019559440606e+02 -1.207754063971444e+00  5.428197130853860e-01  7.400209566206429e+00
2024-10-04T03:36:00.000000000 -6.210263922235630e+03 -3.332395979302159e+03 -3.189259662798598e+02 -7.861793218207492e-01  7.714729746626521e-01  7.437252008307517e+00
2024-10-04T03:37:00.000000000 -6.244699995382829e+03 -3.279323085038382e+03  1.276581371980058e+02 -3.612806640272235e-01  9.970296290340079e-01  7.443795247853714e+00
2024-10-04T03:38:00.000000000 -6.253586329595770e+03 -3.212833107801909e+03  5.737184635953429e+02  6.518589679365991e-02  1.218555149024085e+00  7.419798383878245e+00
2024-10-04T03:39:00.000000000 -6.236881673603967e+03 -3.133195526755811e+03  1.017424720201017e+03  4.914569452430416e-01  1.435131176252803e+00  7.365349777848951e+00
2024-10-04T03:40:00.000000000 -6.194650701936421e+03 -3.040734370910890e+03  1.456955655371026e+03  9.157690568086305e-01  1.645859769989695e+00  7.280666978208775e+00
2024-10-04T03:41:00.000000000 -6.127063760671595e+03 -2.935826866488299e+03  1.890506803407351e+03  1.336366955043977e+00  1.849867754829115e+00  7.166095440151489e+00
2024-10-04T03:42:00.000000000 -6.034395872177677e+03 -2.818901654017776e+03  2.316298561504153e+03  1.751511400863348e+00  2.046310652128781e+00  7.022106559669179e+00
2024-10-04T03:43:00.000000000 -5.917025806355849e+03 -2.690437137988260e+03  2.732583216198925e+03  2.159486160546675e+00  2.234376169658965e+00  6.849295919140036e+00
2024-10-04T03:44:00.000000000 -5.775434580524976e+03 -2.550959519319791e+03  3.137652197281929e+03  2.558606040249067e+00  2.413287967017300e+00  6.648380629607894e+00
2024-10-04T03:45:00.000000000 -5.610203022739509e+03 -2.401040302545035e+03  3.529843748028652e+03  2.947225084826106e+00  2.582309024677917e+00  6.420195131919209e+00
2024-10-04T03:46:00.000000000 -5.422009445011640e+03 -2.241294010433377e+03  3.907549518473006e+03  3.323742875715154e+00  2.740744088730791e+00  6.165687124334517e+00
2024-10-04T03:47:00.000000000 -5.211626663135363e+03 -2.072375559302960e+03  4.269221291419156e+03  3.686611176722175e+00  2.887942624730408e+00  5.885913484630326e+00
